NORAD_CAT_ID,OBJECT_NAME,OBJECT_TYPE,EPOCH,MEAN_MOTION,ECCENTRICITY,INCLINATION,RA_OF_ASC_NODE,ARG_OF_PERICENTER,MEAN_ANOMALY,BSTAR,MEAN_MOTION_DOT,MEAN_MOTION_DDOT,TLE_LINE0,TLE_LINE1,TLE_LINE2,SEMIMAJOR_AXIS,PERIOD,APOGEE,PERIGEE,DECAYED
53018.0,STARLINK-4279,PAYLOAD,2023-07-13 02:29:45,15.08855484,0.0001405,53.2174,121.5086,90.2723,269.843,0.00019237,2.776e-05,0.0,0 STARLINK-4279,1 53018U 22076AJ  23194.10399516  .00002776  00000-0  19237-3 0  9994,2 53018  53.2174 121.5086 0001405  90.2723 269.8430 15.08855484 56929,6917.833,95.437,540.67,538.726,0.0
53018.0,STARLINK-4279,PAYLOAD,2023-07-14 05:31:19,15.08844182,0.0001108,53.2174,116.4519,94.7918,265.3201,4.0862e-05,3.63e-06,0.0,0 STARLINK-4279,1 53018U 22076AJ  23195.23008890  .00000363  00000-0  40862-4 0  9990,2 53018  53.2174 116.4519 0001108  94.7918 265.3201 15.08844182 57097,6917.868,95.437,540.499,538.966,0.0
53018.0,STARLINK-4279,PAYLOAD,2023-07-15 22:51:21,15.0883839,0.0001424,53.2189,108.7198,82.5663,277.5491,2.3593e-05,8.8e-07,0.0,0 STARLINK-4279,1 53018U 22076AJ  23196.95233559  .00000088  00000-0  23593-4 0  9998,2 53018  53.2189 108.7198 0001424  82.5663 277.5491 15.08838390 57352,6917.885,95.438,540.735,538.765,0.0
53018.0,STARLINK-4279,PAYLOAD,2023-07-17 00:17:31,15.08849955,0.0001347,53.2183,103.9635,91.8104,268.3042,2.615e-05,1.28e-06,0.0,0 STARLINK-4279,1 53018U 22076AJ  23198.01216764  .00000128  00000-0  26150-4 0  9993,2 53018  53.2183 103.9635 0001347  91.8104 268.3042 15.08849955 57513,6917.85,95.437,540.647,538.783,0.0
53018.0,STARLINK-4279,PAYLOAD,2023-07-17 22:32:55,15.08842756,0.0001412,53.2185,99.7997,94.7133,265.4021,0.00010748,1.423e-05,0.0,0 STARLINK-4279,1 53018U 22076AJ  23198.93952784  .00001423  00000-0  10748-3 0  9997,2 53018  53.2185  99.7997 0001412  94.7133 265.4021 15.08842756 57657,6917.872,95.437,540.714,538.76,0.0
53018.0,STARLINK-4279,PAYLOAD,2023-07-18 22:23:41,15.08880431,0.0001632,53.219,95.3395,85.1162,275.0016,-0.00067947,-0.00011098,0.0,0 STARLINK-4279,1 53018U 22076AJ  23199.93312261 -.00011098  00000-0 -67947-3 0  9992,2 53018  53.2190  95.3395 0001632  85.1162 275.0016 15.08880431 57807,6917.757,95.435,540.751,538.493,0.0
53018.0,STARLINK-4279,PAYLOAD,2023-07-19 19:03:44,15.08828901,0.0001201,53.2181,91.4727,90.7227,269.3902,5.7847e-05,6.33e-06,0.0,0 STARLINK-4279,1 53018U 22076AJ  23200.79426050  .00000633  00000-0  57847-4 0  9991,2 53018  53.2181  91.4727 0001201  90.7227 269.3902 15.08828901 57937,6917.914,95.438,540.61,538.948,0.0
53018.0,STARLINK-4279,PAYLOAD,2023-07-21 01:16:03,15.08839516,0.0001148,53.2174,85.8256,88.9813,271.1311,0.00015869,2.239e-05,0.0,0 STARLINK-4279,1 53018U 22076AJ  23202.05281665  .00002239  00000-0  15869-3 0  9994,2 53018  53.2174  85.8256 0001148  88.9813 271.1311 15.08839516 58124,6917.882,95.438,540.541,538.953,0.0
53018.0,STARLINK-4279,PAYLOAD,2023-07-23 23:13:01,15.08845855,0.0001258,53.2178,72.7395,97.2215,262.892,-4.382e-06,-3.58e-06,0.0,0 STARLINK-4279,1 53018U 22076AJ  23204.96737937 -.00000358  00000-0 -43820-5 0  9996,2 53018  53.2178  72.7395 0001258  97.2215 262.8920 15.08845855 58090,6917.862,95.437,540.598,538.857,0.0
53018.0,STARLINK-4279,PAYLOAD,2023-07-24 23:03:48,15.08846708,0.0001317,53.2176,68.2806,79.3005,280.8136,0.00013755,1.902e-05,0.0,0 STARLINK-4279,1 53018U 22076AJ  23205.96097519  .00001902  00000-0  13755-3 0  9998,2 53018  53.2176  68.2806 0001317  79.3005 280.8136 15.08846708 58243,6917.86,95.437,540.636,538.814,0.0
53018.0,STARLINK-4279,PAYLOAD,2023-07-25 22:54:36,15.0883542,0.0001564,53.2154,63.8209,102.04,258.0768,-2.1078e-05,-6.23e-06,0.0,0 STARLINK-4279,1 53018U 22076AJ  23206.95458800 -.00000623  00000-0 -21078-4 0  9991,2 53018  53.2154  63.8209 0001564 102.0400 258.0768 15.08835420 58397,6917.894,95.438,540.841,538.677,0.0
53018.0,STARLINK-4279,PAYLOAD,2023-07-26 21:09:58,15.08872249,0.0001035,53.2182,59.6576,87.9145,272.1966,-0.00028683,-4.854e-05,0.0,0 STARLINK-4279,1 53018U 22076AJ  23207.88192918 -.00004854  00000-0 -28683-3 0  9997,2 53018  53.2182  59.6576 0001035  87.9145 272.1966 15.08872249 58531,6917.782,95.436,540.363,538.931,0.0
53018.0,STARLINK-4279,PAYLOAD,2023-07-27 00:20:44,15.08866842,0.0001195,53.2187,59.0615,91.2215,268.8914,-0.00011019,-2.042e-05,0.0,0 STARLINK-4279,1 53018U 22076AJ  23208.01440656 -.00002042  00000-0 -11019-3 0  9990,2 53018  53.2187  59.0615 0001195  91.2215 268.8914 15.08866842 59029,6917.798,95.436,540.49,538.837,0.0
53018.0,STARLINK-4279,PAYLOAD,2023-07-27 09:53:05,15.08826277,0.0001164,53.2169,57.2796,92.7267,267.3858,2.2088e-05,6.4e-07,0.0,0 STARLINK-4279,1 53018U 22076AJ  23208.41187230  .00000064  00000-0  22088-4 0  9999,2 53018  53.2169  57.2796 0001164  92.7267 267.3858 15.08826277 59083,6917.922,95.438,540.593,538.982,0.0
53018.0,STARLINK-4279,PAYLOAD,2023-07-27 14:39:15,15.08826497,0.0001152,53.217,56.3869,96.327,263.7854,-3.6798e-05,-8.73e-06,0.0,0 STARLINK-4279,1 53018U 22076AJ  23208.61059516 -.00000873  00000-0 -36798-4 0  9999,2 53018  53.2170  56.3869 0001152  96.3270 263.7854 15.08826497 58648,6917.922,95.438,540.584,538.99,0.0
53018.0,STARLINK-4279,PAYLOAD,2023-07-27 21:00:47,15.08829503,0.0001108,53.2174,55.1983,97.4086,262.7032,8.3583e-06,-1.55e-06,0.0,0 STARLINK-4279,1 53018U 22076AJ  23208.87555412 -.00000155  00000-0  83583-5 0  9990,2 53018  53.2174  55.1983 0001108  97.4086 262.7032 15.08829503 58686,6917.912,95.438,540.544,539.011,0.0
53018.0,STARLINK-4279,PAYLOAD,2023-07-28 08:08:29,15.0883682,0.0001079,53.217,53.1163,95.4728,264.6387,2.6454e-05,1.33e-06,0.0,0 STARLINK-4279,1 53018U 22076AJ  23209.33923065  .00000133  00000-0  26454-4 0  9993,2 53018  53.2170  53.1163 0001079  95.4728 264.6387 15.08836820 59223,6917.89,95.438,540.502,539.009,0.0
53018.0,STARLINK-4279,PAYLOAD,2023-07-28 12:54:38,15.08847124,0.0001103,53.2172,52.2244,97.3053,262.8064,-3.0583e-05,-7.75e-06,0.0,0 STARLINK-4279,1 53018U 22076AJ  23209.53794804 -.00000775  00000-0 -30583-4 0  9994,2 53018  53.2172  52.2244 0001103  97.3053 262.8064 15.08847124 58786,6917.859,95.437,540.487,538.961,0.0
53018.0,STARLINK-4279,PAYLOAD,2023-07-28 16:05:24,15.08849243,9.54e-05,53.2165,51.6294,100.1046,260.0053,-0.00027917,-4.729e-05,0.0,0 STARLINK-4279,1 53018U 22076AJ  23209.67042343 -.00004729  00000-0 -27917-3 0  9992,2 53018  53.2165  51.6294 0000954 100.1046 260.0053 15.08849243 59271,6917.852,95.437,540.377,539.057,0.0
53018.0,STARLINK-4279,PAYLOAD,2023-07-29 19:06:58,15.08844662,9.94e-05,53.2168,46.574,96.4846,263.626,0.00031887,4.791e-05,0.0,0 STARLINK-4279,1 53018U 22076AJ  23210.79650817  .00004791  00000-0  31887-3 0  9996,2 53018  53.2168  46.5740 0000994  96.4846 263.6260 15.08844662 59440,6917.866,95.437,540.419,539.044,0.0
53018.0,STARLINK-4279,PAYLOAD,2023-07-29 23:53:07,15.08853799,9.87e-05,53.2163,45.6818,101.1649,258.9454,0.00039966,6.081e-05,0.0,0 STARLINK-4279,1 53018U 22076AJ  23210.99522399  .00006081  00000-0  39966-3 0  9991,2 53018  53.2163  45.6818 0000987 101.1649 258.9454 15.08853799 59474,6917.838,95.437,540.386,539.02,0.0
53018.0,STARLINK-4279,PAYLOAD,2023-07-30 18:57:45,15.08842058,8.93e-05,53.2181,42.1103,110.5794,249.5294,0.00010351,1.36e-05,0.0,0 STARLINK-4279,1 53018U 22076AJ  23211.79010742  .00001360  00000-0  10351-3 0  9996,2 53018  53.2181  42.1103 0000893 110.5794 249.5294 15.08842058 59591,6917.874,95.437,540.357,539.121,0.0
53018.0,STARLINK-4279,PAYLOAD,2023-08-01 18:39:19,15.08844581,0.0001074,53.2168,33.1923,84.8516,275.2599,0.00011805,1.592e-05,0.0,0 STARLINK-4279,1 53018U 22076AJ  23213.77730913  .00001592  00000-0  11805-3 0  9997,2 53018  53.2168  33.1923 0001074  84.8516 275.2599 15.08844581 59893,6917.866,95.437,540.474,538.988,0.0
53018.0,STARLINK-4279,PAYLOAD,2023-08-02 18:30:07,15.0883636,0.0001068,53.2178,28.7318,82.564,277.5474,8.2205e-06,-1.57e-06,0.0,0 STARLINK-4279,1 53018U 22076AJ  23214.77091632 -.00000157  00000-0  82205-5 0  9997,2 53018  53.2178  28.7318 0001068  82.5640 277.5474 15.08836360 60040,6917.892,95.438,540.495,539.018,0.0
53018.0,STARLINK-4279,PAYLOAD,2023-08-03 16:45:30,15.08849391,0.0001124,53.2174,24.568,76.3787,283.7331,0.00024463,3.609e-05,0.0,0 STARLINK-4279,1 53018U 22076AJ  23215.69826896  .00003609  00000-0  24463-3 0  9991,2 53018  53.2174  24.5680 0001124  76.3787 283.7331 15.08849391 60182,6917.852,95.437,540.494,538.939,0.0
53018.0,STARLINK-4279,PAYLOAD,2023-08-04 16:36:18,15.08837828,0.0001216,53.2183,20.107,67.2107,292.9014,0.00010849,1.439e-05,0.0,0 STARLINK-4279,1 53018U 22076AJ  23216.69187735  .00001439  00000-0  10849-3 0  9996,2 53018  53.2183  20.1070 0001216  67.2107 292.9014 15.08837828 60333,6917.887,95.438,540.593,538.911,0.0
53018.0,STARLINK-4279,PAYLOAD,2023-08-05 18:02:27,15.08860933,0.0001094,53.2181,15.3495,67.1812,292.9295,0.00042984,6.564e-05,0.0,0 STARLINK-4279,1 53018U 22076AJ  23217.75170641  .00006564  00000-0  42984-3 0  9991,2 53018  53.2181  15.3495 0001094  67.1812 292.9295 15.08860933 60495,6917.816,95.436,540.438,538.925,0.0
53018.0,STARLINK-4279,PAYLOAD,2023-08-06 09:56:20,15.08816672,0.00011,53.2171,12.3796,35.8864,324.2202,-0.00036382,-6.069e-05,0.0,0 STARLINK-4279,1 53018U 22076AJ  23218.41412372 -.00006069  00000-0 -36382-3 0  9992,2 53018  53.2171  12.3796 0001100  35.8864 324.2202 15.08816672 60591,6917.952,95.439,540.578,539.056,0.0
53018.0,STARLINK-4279,PAYLOAD,2023-08-06 17:53:15,15.08820524,9.75e-05,53.2174,10.891,103.9513,256.1587,2.2557e-05,7.1e-07,0.0,0 STARLINK-4279,1 53018U 22076AJ  23218.74532284  .00000071  00000-0  22557-4 0  9998,2 53018  53.2174  10.8910 0000975 103.9513 256.1587 15.08820524 60648,6917.94,95.439,540.479,539.13,0.0
53018.0,STARLINK-4279,PAYLOAD,2023-08-07 16:08:40,15.08846523,9.25e-05,53.2174,6.7279,105.4896,254.6198,0.0013546,0.0002134,0.0,0 STARLINK-4279,1 53018U 22076AJ  23219.67269304  .00021340  00000-0  13546-2 0  9999,2 53018  53.2174   6.7279 0000925 105.4896 254.6198 15.08846523 60789,6917.86,95.437,540.365,539.086,0.0
